HULIANWANG DIGUI-129    
1 67237U 25311B   26013.98237393 -.00000044  00000+0  82395-4 0  9992
2 67237  50.0092 320.0186 0007799 342.3499  17.7127 13.90166645  2658
HULIANWANG DIGUI-130    
1 67238U 25311C   26013.98906461 -.00000038  00000+0  86829-4 0  9991
2 67238  50.0072 320.0484 0007758 319.8085  40.2239 13.90218234  2650
HULIANWANG DIGUI-131    
1 67239U 25311D   26013.92027645 -.00000037  00000+0  87641-4 0  9996
2 67239  50.0068 320.3494 0009369 326.9358  33.0954 13.90205261  2641
HULIANWANG DIGUI-132    
1 67240U 25311E   26013.98599824 -.00000044  00000+0  82085-4 0  9992
2 67240  50.0079 320.0343 0008456 333.8811  26.1661 13.90231150  2657
HULIANWANG DIGUI-133    
1 67241U 25311F   26013.98415842 -.00000040  00000+0  85074-4 0  9997
2 67241  50.0123 320.0357 0007571 338.0303  22.0270 13.90209126  2652
HULIANWANG DIGUI-134    
1 67242U 25311G   26013.98523899 -.00000035  00000+0  88992-4 0  9996
2 67242  50.0054 320.0237 0006695 327.0200  33.0280 13.90195201  2654
HULIANWANG DIGUI-135    
1 67243U 25311H   26013.98731537 -.00000042  00000+0  83371-4 0  9991
2 67243  50.0040 320.0310 0007912 329.4914  30.5524 13.90184203  2656
HULIANWANG DIGUI-136    
1 67244U 25311J   26013.98302942 -.00000041  00000+0  84186-4 0  9990
2 67244  50.0112 320.0264 0006835 335.8014  24.2562 13.90230072  2658
CZ-8A R/B               
1 67245U 25311K   26013.98095628 -.00000262  00000+0 -55210-4 0  9993
2 67245  50.0040 317.3308 0088957 147.6920 212.9479 14.12608828  2697
FENGYUN 4C              
1 67246U 25312A   26013.54487236 -.00000304  00000+0  00000+0 0  9995
2 67246   0.0775 242.5712 0002570  46.5577 153.1255  1.00271186   229
CZ-3B R/B               
1 67247U 25312B   26013.30041885  .00172942 -31868-6  51307-3 0  9997
2 67247  28.4106 327.3433 7209820 190.3323 137.2956  2.43501412   424
2025-313A               
1 67248U 25313A   26013.91249408  .00001320  00000+0  13623-3 0  9993
2 67248  97.5634  90.1764 0280530 112.2218 250.9000 14.66790903  2402
