CCSDS_OMM_VERS = 2.0
CREATION_DATE  = 
ORIGINATOR     = 

OBJECT_NAME    = HULIANWANG DIGUI-129
OBJECT_ID      = 2025-311B
CENTER_NAME    = EARTH
REF_FRAME      = TEME
TIME_SYSTEM    = UTC
MEAN_ELEMENT_THEORY = SGP/SGP4

EPOCH          = 2026-01-13T23:34:37.107552
MEAN_MOTION    = 13.90166645
ECCENTRICITY   = .00077999
INCLINATION    = 50.0092
RA_OF_ASC_NODE = 320.0186
ARG_OF_PERICENTER = 342.3499
MEAN_ANOMALY   = 17.7127

EPHEMERIS_TYPE = 0
CLASSIFICATION_TYPE = U
NORAD_CAT_ID   = 67237
ELEMENT_SET_NO = 999
REV_AT_EPOCH   = 265
BSTAR          = .8239528E-4
MEAN_MOTION_DOT = -.44E-6
MEAN_MOTION_DDOT = 0

CCSDS_OMM_VERS = 2.0
CREATION_DATE  = 
ORIGINATOR     = 

OBJECT_NAME    = HULIANWANG DIGUI-130
OBJECT_ID      = 2025-311C
CENTER_NAME    = EARTH
REF_FRAME      = TEME
TIME_SYSTEM    = UTC
MEAN_ELEMENT_THEORY = SGP/SGP4

EPOCH          = 2026-01-13T23:44:15.182304
MEAN_MOTION    = 13.90218234
ECCENTRICITY   = .00077581
INCLINATION    = 50.0072
RA_OF_ASC_NODE = 320.0484
ARG_OF_PERICENTER = 319.8085
MEAN_ANOMALY   = 40.2239

EPHEMERIS_TYPE = 0
CLASSIFICATION_TYPE = U
NORAD_CAT_ID   = 67238
ELEMENT_SET_NO = 999
REV_AT_EPOCH   = 265
BSTAR          = .86828597E-4
MEAN_MOTION_DOT = -.38E-6
MEAN_MOTION_DDOT = 0

CCSDS_OMM_VERS = 2.0
CREATION_DATE  = 
ORIGINATOR     = 

OBJECT_NAME    = HULIANWANG DIGUI-131
OBJECT_ID      = 2025-311D
CENTER_NAME    = EARTH
REF_FRAME      = TEME
TIME_SYSTEM    = UTC
MEAN_ELEMENT_THEORY = SGP/SGP4

EPOCH          = 2026-01-13T22:05:11.885280
MEAN_MOTION    = 13.90205261
ECCENTRICITY   = .00093697
INCLINATION    = 50.0068
RA_OF_ASC_NODE = 320.3494
ARG_OF_PERICENTER = 326.9358
MEAN_ANOMALY   = 33.0954

EPHEMERIS_TYPE = 0
CLASSIFICATION_TYPE = U
NORAD_CAT_ID   = 67239
ELEMENT_SET_NO = 999
REV_AT_EPOCH   = 264
BSTAR          = .8764089E-4
MEAN_MOTION_DOT = -.37E-6
MEAN_MOTION_DDOT = 0

CCSDS_OMM_VERS = 2.0
CREATION_DATE  = 
ORIGINATOR     = 

OBJECT_NAME    = HULIANWANG DIGUI-132
OBJECT_ID      = 2025-311E
CENTER_NAME    = EARTH
REF_FRAME      = TEME
TIME_SYSTEM    = UTC
MEAN_ELEMENT_THEORY = SGP/SGP4

EPOCH          = 2026-01-13T23:39:50.247936
MEAN_MOTION    = 13.90231150
ECCENTRICITY   = .00084564
INCLINATION    = 50.0079
RA_OF_ASC_NODE = 320.0343
ARG_OF_PERICENTER = 333.8811
MEAN_ANOMALY   = 26.1661

EPHEMERIS_TYPE = 0
CLASSIFICATION_TYPE = U
NORAD_CAT_ID   = 67240
ELEMENT_SET_NO = 999
REV_AT_EPOCH   = 265
BSTAR          = .82085383E-4
MEAN_MOTION_DOT = -.44E-6
MEAN_MOTION_DDOT = 0

CCSDS_OMM_VERS = 2.0
CREATION_DATE  = 
ORIGINATOR     = 

OBJECT_NAME    = HULIANWANG DIGUI-133
OBJECT_ID      = 2025-311F
CENTER_NAME    = EARTH
REF_FRAME      = TEME
TIME_SYSTEM    = UTC
MEAN_ELEMENT_THEORY = SGP/SGP4

EPOCH          = 2026-01-13T23:37:11.287488
MEAN_MOTION    = 13.90209126
ECCENTRICITY   = .00075717
INCLINATION    = 50.0123
RA_OF_ASC_NODE = 320.0357
ARG_OF_PERICENTER = 338.0303
MEAN_ANOMALY   = 22.0270

EPHEMERIS_TYPE = 0
CLASSIFICATION_TYPE = U
NORAD_CAT_ID   = 67241
ELEMENT_SET_NO = 999
REV_AT_EPOCH   = 265
BSTAR          = .85074345E-4
MEAN_MOTION_DOT = -.4E-6
MEAN_MOTION_DDOT = 0

CCSDS_OMM_VERS = 2.0
CREATION_DATE  = 
ORIGINATOR     = 

OBJECT_NAME    = HULIANWANG DIGUI-134
OBJECT_ID      = 2025-311G
CENTER_NAME    = EARTH
REF_FRAME      = TEME
TIME_SYSTEM    = UTC
MEAN_ELEMENT_THEORY = SGP/SGP4

EPOCH          = 2026-01-13T23:38:44.648736
MEAN_MOTION    = 13.90195201
ECCENTRICITY   = .00066954
INCLINATION    = 50.0054
RA_OF_ASC_NODE = 320.0237
ARG_OF_PERICENTER = 327.0200
MEAN_ANOMALY   = 33.0280

EPHEMERIS_TYPE = 0
CLASSIFICATION_TYPE = U
NORAD_CAT_ID   = 67242
ELEMENT_SET_NO = 999
REV_AT_EPOCH   = 265
BSTAR          = .88991702E-4
MEAN_MOTION_DOT = -.35E-6
MEAN_MOTION_DDOT = 0

CCSDS_OMM_VERS = 2.0
CREATION_DATE  = 
ORIGINATOR     = 

OBJECT_NAME    = HULIANWANG DIGUI-135
OBJECT_ID      = 2025-311H
CENTER_NAME    = EARTH
REF_FRAME      = TEME
TIME_SYSTEM    = UTC
MEAN_ELEMENT_THEORY = SGP/SGP4

EPOCH          = 2026-01-13T23:41:44.047968
MEAN_MOTION    = 13.90184203
ECCENTRICITY   = .00079128
INCLINATION    = 50.0040
RA_OF_ASC_NODE = 320.0310
ARG_OF_PERICENTER = 329.4914
MEAN_ANOMALY   = 30.5524

EPHEMERIS_TYPE = 0
CLASSIFICATION_TYPE = U
NORAD_CAT_ID   = 67243
ELEMENT_SET_NO = 999
REV_AT_EPOCH   = 265
BSTAR          = .83371281E-4
MEAN_MOTION_DOT = -.42E-6
MEAN_MOTION_DDOT = 0

CCSDS_OMM_VERS = 2.0
CREATION_DATE  = 
ORIGINATOR     = 

OBJECT_NAME    = HULIANWANG DIGUI-136
OBJECT_ID      = 2025-311J
CENTER_NAME    = EARTH
REF_FRAME      = TEME
TIME_SYSTEM    = UTC
MEAN_ELEMENT_THEORY = SGP/SGP4

EPOCH          = 2026-01-13T23:35:33.741888
MEAN_MOTION    = 13.90230072
ECCENTRICITY   = .00068359
INCLINATION    = 50.0112
RA_OF_ASC_NODE = 320.0264
ARG_OF_PERICENTER = 335.8014
MEAN_ANOMALY   = 24.2562

EPHEMERIS_TYPE = 0
CLASSIFICATION_TYPE = U
NORAD_CAT_ID   = 67244
ELEMENT_SET_NO = 999
REV_AT_EPOCH   = 265
BSTAR          = .84186399E-4
MEAN_MOTION_DOT = -.41E-6
MEAN_MOTION_DDOT = 0

CCSDS_OMM_VERS = 2.0
CREATION_DATE  = 
ORIGINATOR     = 

OBJECT_NAME    = CZ-8A R/B
OBJECT_ID      = 2025-311K
CENTER_NAME    = EARTH
REF_FRAME      = TEME
TIME_SYSTEM    = UTC
MEAN_ELEMENT_THEORY = SGP/SGP4

EPOCH          = 2026-01-13T23:32:34.622592
MEAN_MOTION    = 14.12608828
ECCENTRICITY   = .00889571
INCLINATION    = 50.0040
RA_OF_ASC_NODE = 317.3308
ARG_OF_PERICENTER = 147.6920
MEAN_ANOMALY   = 212.9479

EPHEMERIS_TYPE = 0
CLASSIFICATION_TYPE = U
NORAD_CAT_ID   = 67245
ELEMENT_SET_NO = 999
REV_AT_EPOCH   = 269
BSTAR          = -.5521016E-4
MEAN_MOTION_DOT = -.262E-5
MEAN_MOTION_DDOT = 0

CCSDS_OMM_VERS = 2.0
CREATION_DATE  = 
ORIGINATOR     = 

OBJECT_NAME    = FENGYUN 4C
OBJECT_ID      = 2025-312A
CENTER_NAME    = EARTH
REF_FRAME      = TEME
TIME_SYSTEM    = UTC
MEAN_ELEMENT_THEORY = SGP/SGP4

EPOCH          = 2026-01-13T13:04:36.971904
MEAN_MOTION    = 1.00271186
ECCENTRICITY   = .000257
INCLINATION    = 0.0775
RA_OF_ASC_NODE = 242.5712
ARG_OF_PERICENTER = 46.5577
MEAN_ANOMALY   = 153.1255

EPHEMERIS_TYPE = 0
CLASSIFICATION_TYPE = U
NORAD_CAT_ID   = 67246
ELEMENT_SET_NO = 999
REV_AT_EPOCH   = 22
BSTAR          = 0
MEAN_MOTION_DOT = -.304E-5
MEAN_MOTION_DDOT = 0

CCSDS_OMM_VERS = 2.0
CREATION_DATE  = 
ORIGINATOR     = 

OBJECT_NAME    = CZ-3B R/B
OBJECT_ID      = 2025-312B
CENTER_NAME    = EARTH
REF_FRAME      = TEME
TIME_SYSTEM    = UTC
MEAN_ELEMENT_THEORY = SGP/SGP4

EPOCH          = 2026-01-13T07:12:36.188640
MEAN_MOTION    = 2.43501412
ECCENTRICITY   = .720982
INCLINATION    = 28.4106
RA_OF_ASC_NODE = 327.3433
ARG_OF_PERICENTER = 190.3323
MEAN_ANOMALY   = 137.2956

EPHEMERIS_TYPE = 0
CLASSIFICATION_TYPE = U
NORAD_CAT_ID   = 67247
ELEMENT_SET_NO = 999
REV_AT_EPOCH   = 42
BSTAR          = .51307E-3
MEAN_MOTION_DOT = .172942E-2
MEAN_MOTION_DDOT = -.31868E-6

CCSDS_OMM_VERS = 2.0
CREATION_DATE  = 
ORIGINATOR     = 

OBJECT_NAME    = 2025-313A
OBJECT_ID      = 2025-313A
CENTER_NAME    = EARTH
REF_FRAME      = TEME
TIME_SYSTEM    = UTC
MEAN_ELEMENT_THEORY = SGP/SGP4

EPOCH          = 2026-01-13T21:53:59.488512
MEAN_MOTION    = 14.66790903
ECCENTRICITY   = .02805305
INCLINATION    = 97.5634
RA_OF_ASC_NODE = 90.1764
ARG_OF_PERICENTER = 112.2218
MEAN_ANOMALY   = 250.9000

EPHEMERIS_TYPE = 0
CLASSIFICATION_TYPE = U
NORAD_CAT_ID   = 67248
ELEMENT_SET_NO = 999
REV_AT_EPOCH   = 240
BSTAR          = .13622941E-3
MEAN_MOTION_DOT = .132E-4
MEAN_MOTION_DDOT = 0

